{"type": "FeatureCollection", "features": [ {"type": "Feature", "properties": {"norad_id": 33867, "name": "IRIDIUM 33 DEB", "group": "iridium-33-debris", "lat": -71.60386565583964, "lon": -26.303823307472264, "alt_km": 297.05181886735045, "timestamp": "2025-12-22T22:44:21.363355+00:00", "meta": {"OBJECT_NAME": "IRIDIUM 33 DEB", "OBJECT_ID": "1997-051AL", "EPOCH": "2025-12-22T11:00:02.746368", "MEAN_MOTION": 15.94011051, "ECCENTRICITY": 0.0013656, "INCLINATION": 86.3662, "RA_OF_ASC_NODE": 344.9772, "ARG_OF_PERICENTER": 104.8485, "MEAN_ANOMALY": 255.4311, "EPHEMERIS_TYPE": 0, "CLASSIFICATION_TYPE": "U", "NORAD_CAT_ID": 33867, "ELEMENT_SET_NO": 999, "REV_AT_EPOCH": 89664, "BSTAR": 0.0093592392, "MEAN_MOTION_DOT": 0.03057152, "MEAN_MOTION_DDOT": 0.0088726237}, "tle": {"line1": "1 33867U 97051AL  25356.45836512  .03057152  88726-2  93592-2 0  9990", "line2": "2 33867  86.3662 344.9772 0013656 104.8485 255.4311 15.94011051896648"}}, "geometry": {"type": "Point", "coordinates": [-26.303823307472264, -71.60386565583964]}}, {"type": "Feature", "properties": {"norad_id": 33870, "name": "IRIDIUM 33 DEB", "group": "iridium-33-debris", "lat": 34.65691968890897, "lon": -128.62735091645686, "alt_km": 720.9048796293255, "timestamp": "2025-12-22T22:44:21.363366+00:00", "meta": {"OBJECT_NAME": "IRIDIUM 33 DEB", "OBJECT_ID": "1997-051AP", "EPOCH": "2025-12-22T14:22:05.127744", "MEAN_MOTION": 14.45897764, "ECCENTRICITY": 0.00224526, "INCLINATION": 86.3737, "RA_OF_ASC_NODE": 54.0349, "ARG_OF_PERICENTER": 146.7481, "MEAN_ANOMALY": 344.003, "EPHEMERIS_TYPE": 0, "CLASSIFICATION_TYPE": "U", "NORAD_CAT_ID": 33870, "ELEMENT_SET_NO": 999, "REV_AT_EPOCH": 88279, "BSTAR": 0.00065993411, "MEAN_MOTION_DOT": 2.372e-05, "MEAN_MOTION_DDOT": 0}, "tle": {"line1": "1 33870U 97051AP  25356.59867046  .00002372  00000+0  65993-3 0  9997", "line2": "2 33870  86.3737  54.0349 0022452 146.7481 344.0030 14.45897764882791"}}, "geometry": {"type": "Point", "coordinates": [-128.62735091645686, 34.65691968890897]}}, {"type": "Feature", "properties": {"norad_id": 33881, "name": "IRIDIUM 33 DEB", "group": "iridium-33-debris", "lat": 48.29565126666504, "lon": 106.37255841880261, "alt_km": 701.4948688547511, "timestamp": "2025-12-22T22:44:21.363377+00:00", "meta": {"OBJECT_NAME": "IRIDIUM 33 DEB", "OBJECT_ID": "1997-051BA", "EPOCH": "2025-12-22T01:53:28.694112", "MEAN_MOTION": 14.56726775, "ECCENTRICITY": 0.00613657, "INCLINATION": 86.3868, "RA_OF_ASC_NODE": 102.6839, "ARG_OF_PERICENTER": 144.447, "MEAN_ANOMALY": 32.1992, "EPHEMERIS_TYPE": 0, "CLASSIFICATION_TYPE": "U", "NORAD_CAT_ID": 33881, "ELEMENT_SET_NO": 999, "REV_AT_EPOCH": 87636, "BSTAR": 0.0020421303, "MEAN_MOTION_DOT": 9.388e-05, "MEAN_MOTION_DDOT": 0}, "tle": {"line1": "1 33881U 97051BA  25356.07880433  .00009388  00000+0  20421-2 0  9997", "line2": "2 33881  86.3868 102.6839 0061365 144.4470  32.1992 14.56726775876364"}}, "geometry": {"type": "Point", "coordinates": [106.37255841880261, 48.29565126666504]}}, {"type": "Feature", "properties": {"norad_id": 33884, "name": "IRIDIUM 33 DEB", "group": "iridium-33-debris", "lat": 41.29723930886237, "lon": 8.407151400585885, "alt_km": 636.5964906079353, "timestamp": "2025-12-22T22:44:21.363387+00:00", "meta": {"OBJECT_NAME": "IRIDIUM 33 DEB", "OBJECT_ID": "1997-051BD", "EPOCH": "2025-12-21T19:42:17.168256", "MEAN_MOTION": 14.77591703, "ECCENTRICITY": 0.00089767, "INCLINATION": 86.3691, "RA_OF_ASC_NODE": 5.7181, "ARG_OF_PERICENTER": 287.8241, "MEAN_ANOMALY": 245.5748, "EPHEMERIS_TYPE": 0, "CLASSIFICATION_TYPE": "U", "NORAD_CAT_ID": 33884, "ELEMENT_SET_NO": 999, "REV_AT_EPOCH": 88981, "BSTAR": 0.0012315655, "MEAN_MOTION_DOT": 8.831e-05, "MEAN_MOTION_DDOT": 0}, "tle": {"line1": "1 33884U 97051BD  25355.82103204  .00008831  00000+0  12316-2 0  9992", "line2": "2 33884  86.3691   5.7181 0008976 287.8241 245.5748 14.77591703889818"}}, "geometry": {"type": "Point", "coordinates": [8.407151400585885, 41.29723930886237]}}, {"type": "Feature", "properties": {"norad_id": 33886, "name": "IRIDIUM 33 DEB", "group": "iridium-33-debris", "lat": -65.41176909812911, "lon": -109.12050160470194, "alt_km": 771.6419636043674, "timestamp": "2025-12-22T22:44:21.363398+00:00", "meta": {"OBJECT_NAME": "IRIDIUM 33 DEB", "OBJECT_ID": "1997-051BF", "EPOCH": "2025-12-22T11:37:02.008992", "MEAN_MOTION": 14.36062756, "ECCENTRICITY": 0.00131922, "INCLINATION": 86.3822, "RA_OF_ASC_NODE": 63.1272, "ARG_OF_PERICENTER": 206.9179, "MEAN_ANOMALY": 164.3173, "EPHEMERIS_TYPE": 0, "CLASSIFICATION_TYPE": "U", "NORAD_CAT_ID": 33886, "ELEMENT_SET_NO": 999, "REV_AT_EPOCH": 88192, "BSTAR": 0.00017634481, "MEAN_MOTION_DOT": 5.33e-06, "MEAN_MOTION_DDOT": 0}, "tle": {"line1": "1 33886U 97051BF  25356.48405103  .00000533  00000+0  17634-3 0  9990", "line2": "2 33886  86.3822  63.1272 0013192 206.9179 164.3173 14.36062756881923"}}, "geometry": {"type": "Point", "coordinates": [-109.12050160470194, -65.41176909812911]}}, {"type": "Feature", "properties": {"norad_id": 33887, "name": "IRIDIUM 33 DEB", "group": "iridium-33-debris", "lat": -44.6503999551651, "lon": -177.34610668746288, "alt_km": 771.3626175222043, "timestamp": "2025-12-22T22:44:21.363409+00:00", "meta": {"OBJECT_NAME": "IRIDIUM 33 DEB", "OBJECT_ID": "1997-051BG", "EPOCH": "2025-12-22T12:15:13.500288", "MEAN_MOTION": 14.37229472, "ECCENTRICITY": 0.00054817, "INCLINATION": 86.3042, "RA_OF_ASC_NODE": 359.1812, "ARG_OF_PERICENTER": 188.3321, "MEAN_ANOMALY": 297.2235, "EPHEMERIS_TYPE": 0, "CLASSIFICATION_TYPE": "U", "NORAD_CAT_ID": 33887, "ELEMENT_SET_NO": 999, "REV_AT_EPOCH": 88305, "BSTAR": 0.00013931284, "MEAN_MOTION_DOT": 4.34e-06, "MEAN_MOTION_DDOT": 0}, "tle": {"line1": "1 33887U 97051BG  25356.51057292  .00000434  00000+0  13931-3 0  9993", "line2": "2 33887  86.3042 359.1812 0005481 188.3321 297.2235 14.37229472883052"}}, "geometry": {"type": "Point", "coordinates": [-177.34610668746288, -44.6503999551651]}}, {"type": "Feature", "properties": {"norad_id": 33953, "name": "IRIDIUM 33 DEB", "group": "iridium-33-debris", "lat": 25.687266272394748, "lon": 51.09205777205892, "alt_km": 698.4206316354748, "timestamp": "2025-12-22T22:44:21.363420+00:00", "meta": {"OBJECT_NAME": "IRIDIUM 33 DEB", "OBJECT_ID": "1997-051BN", "EPOCH": "2025-12-22T04:44:25.619136", "MEAN_MOTION": 14.55406947, "ECCENTRICITY": 0.00178347, "INCLINATION": 86.3836, "RA_OF_ASC_NODE": 49.6744, "ARG_OF_PERICENTER": 73.9809, "MEAN_ANOMALY": 345.1929, "EPHEMERIS_TYPE": 0, "CLASSIFICATION_TYPE": "U", "NORAD_CAT_ID": 33953, "ELEMENT_SET_NO": 999, "REV_AT_EPOCH": 88441, "BSTAR": 0.0010994661, "MEAN_MOTION_DOT": 4.805e-05, "MEAN_MOTION_DDOT": 0}, "tle": {"line1": "1 33953U 97051BN  25356.19751874  .00004805  00000+0  10995-2 0  9990", "line2": "2 33953  86.3836  49.6744 0017834  73.9809 345.1929 14.55406947884415"}}, "geometry": {"type": "Point", "coordinates": [51.09205777205892, 25.687266272394748]}}, {"type": "Feature", "properties": {"norad_id": 33960, "name": "IRIDIUM 33 DEB", "group": "iridium-33-debris", "lat": -33.681077731860604, "lon": 107.20228779818366, "alt_km": 622.788704643327, "timestamp": "2025-12-22T22:44:21.363431+00:00", "meta": {"OBJECT_NAME": "IRIDIUM 33 DEB", "OBJECT_ID": "1997-051BV", "EPOCH": "2025-12-22T06:09:23.968224", "MEAN_MOTION": 14.8563682, "ECCENTRICITY": 0.00072716, "INCLINATION": 86.2544, "RA_OF_ASC_NODE": 285.0259, "ARG_OF_PERICENTER": 45.0097, "MEAN_ANOMALY": 75.6646, "EPHEMERIS_TYPE": 0, "CLASSIFICATION_TYPE": "U", "NORAD_CAT_ID": 33960, "ELEMENT_SET_NO": 999, "REV_AT_EPOCH": 89008, "BSTAR": 0.0034646151, "MEAN_MOTION_DOT": 0.00030136, "MEAN_MOTION_DDOT": 0}, "tle": {"line1": "1 33960U 97051BV  25356.25652741  .00030136  00000+0  34646-2 0  9993", "line2": "2 33960  86.2544 285.0259 0007271  45.0097  75.6646 14.85636820890087"}}, "geometry": {"type": "Point", "coordinates": [107.20228779818366, -33.681077731860604]}}, {"type": "Feature", "properties": {"norad_id": 33966, "name": "IRIDIUM 33 DEB", "group": "iridium-33-debris", "lat": -59.08747758913492, "lon": 35.59619862867179, "alt_km": 738.9940609321675, "timestamp": "2025-12-22T22:44:21.363441+00:00", "meta": {"OBJECT_NAME": "IRIDIUM 33 DEB", "OBJECT_ID": "1997-051CB", "EPOCH": "2025-12-22T13:37:15.049920", "MEAN_MOTION": 14.49630108, "ECCENTRICITY": 0.00085054, "INCLINATION": 86.3912, "RA_OF_ASC_NODE": 41.8093, "ARG_OF_PERICENTER": 157.4604, "MEAN_ANOMALY": 321.7914, "EPHEMERIS_TYPE": 0, "CLASSIFICATION_TYPE": "U", "NORAD_CAT_ID": 33966, "ELEMENT_SET_NO": 999, "REV_AT_EPOCH": 88584, "BSTAR": 0.00043607238, "MEAN_MOTION_DOT": 1.695e-05, "MEAN_MOTION_DDOT": 0}, "tle": {"line1": "1 33966U 97051CB  25356.56753530  .00001695  00000+0  43607-3 0  9997", "line2": "2 33966  86.3912  41.8093 0008505 157.4604 321.7914 14.49630108885844"}}, "geometry": {"type": "Point", "coordinates": [35.59619862867179, -59.08747758913492]}}, {"type": "Feature", "properties": {"norad_id": 34071, "name": "IRIDIUM 33 DEB", "group": "iridium-33-debris", "lat": 2.2323492976259764, "lon": 13.533879674959147, "alt_km": 728.5025171438447, "timestamp": "2025-12-22T22:44:21.363452+00:00", "meta": {"OBJECT_NAME": "IRIDIUM 33 DEB", "OBJECT_ID": "1997-051CE", "EPOCH": "2025-12-22T12:47:17.503872", "MEAN_MOTION": 14.49505346, "ECCENTRICITY": 0.00099075, "INCLINATION": 86.3448, "RA_OF_ASC_NODE": 13.5713, "ARG_OF_PERICENTER": 81.226, "MEAN_ANOMALY": 279.0066, "EPHEMERIS_TYPE": 0, "CLASSIFICATION_TYPE": "U", "NORAD_CAT_ID": 34071, "ELEMENT_SET_NO": 999, "REV_AT_EPOCH": 88476, "BSTAR": 0.000513667, "MEAN_MOTION_DOT": 1.989e-05, "MEAN_MOTION_DDOT": 0}, "tle": {"line1": "1 34071U 97051CE  25356.53284148  .00001989  00000+0  51367-3 0  9994", "line2": "2 34071  86.3448  13.5713 0009907  81.2260 279.0066 14.49505346884768"}}, "geometry": {"type": "Point", "coordinates": [13.533879674959147, 2.2323492976259764]}}]}